STARLINK-31150          
1 58730U 24005C   25144.91668981  .00328977  00000+0  42118-2 0  9991
2 58730  42.9978 171.0388 0012075  90.4029 250.6614 15.57246298  5885
STARLINK-31204          
1 58731U 24005D   25144.82174559  .00082024  00000+0  26075-2 0  9999
2 58731  43.0006 330.3784 0005562 305.2374  54.7958 15.31650570 77217
STARLINK-31180          
1 58732U 24005E   25144.85322420  .00000009  00000+0  15706-4 0  9999
2 58732  43.0040 351.0399 0001216 262.7520  97.3184 15.02538035 76986
STARLINK-31164          
1 58733U 24005F   25144.88985371 -.00000017  00000+0  13849-4 0  9999
2 58733  43.0052 351.3058 0001284 268.6023  91.4672 15.02534983 76966
STARLINK-31152          
1 58734U 24005G   25144.95300227  .00000306  00000+0  37767-4 0  9994
2 58734  43.0077 350.9181 0001282 279.8163  80.2535 15.02533783 76986
STARLINK-31157          
1 58735U 24005H   25144.88319194 -.00000054  00000+0  11091-4 0  9993
2 58735  43.0040 351.2553 0001264 264.9801  95.0897 15.02535505 76976
STARLINK-31076          
1 58736U 24005J   25144.94634253  .00000494  00000+0  51646-4 0  9994
2 58736  43.0039 350.8691 0001031 272.3069  87.7655 15.02534706 77023
STARLINK-31101          
1 58737U 24005K   25144.93968365  .00000555  00000+0  56172-4 0  9995
2 58737  43.0047 350.8179 0001112 266.1461  93.9254 15.02531546 76977
STARLINK-31108          
1 58738U 24005L   25144.87652282 -.00003226  00000+0 -22373-3 0  9992
2 58738  43.0045 351.2041 0001136 264.8934  95.1779 15.02555126 76993
STARLINK-31042          
1 58739U 24005M   25144.93635164 -.00000070  00000+0  98988-5 0  9990
2 58739  43.0038 350.7914 0001139 263.4330  96.6383 15.02535706 76985
STARLINK-31159          
1 58740U 24005N   25144.93302286 -.00000717  00000+0 -37998-4 0  9990
2 58740  43.0050 350.7687 0001161 271.2054  88.8656 15.02542196 77071
STARLINK-31148          
1 58741U 24005P   25144.92969619  .00000307  00000+0  37818-4 0  9993
2 58741  43.0045 350.7593 0001023 268.2950  91.7775 15.02536081 76980
STARLINK-31151          
1 58742U 24005Q   25144.92636340  .00002442  00000+0  19577-3 0  9999
2 58742  43.0028 350.7346 0001479 250.8053 109.2629 15.02540702 77073
STARLINK-31156          
1 58743U 24005R   25144.92303975 -.00000143  00000+0  44873-5 0  9991
2 58743  43.0036 350.7097 0001023 269.8085  90.2640 15.02531736 77031
STARLINK-31167          
1 58744U 24005S   25144.75993553  .00007271  00000+0  28739-3 0  9999
2 58744  42.9998 264.4637 0000987 272.9913  87.0825 15.25923527 78039
STARLINK-31176          
1 58745U 24005T   25144.91637596 -.00000140  00000+0  46978-5 0  9996
2 58745  43.0073 350.6548 0001523 249.7304 110.3375 15.02531264 77024
STARLINK-31181          
1 58746U 24005U   25144.36502664  .00004325  00000+0  16665-3 0  9999
2 58746  43.0053 261.4727 0002626 281.9001  78.1556 15.27571096 78036
STARLINK-31183          
1 58747U 24005V   25144.31143222  .00007536  00000+0  57306-3 0  9990
2 58747  43.0029 353.8581 0001123 270.0701  90.0012 15.02490195 76997
STARLINK-31165          
1 58748U 24005W   25144.84663843 -.00010137  00000+0 -73797-3 0  9990
2 58748  43.0022 350.9913 0001039 279.2131  80.8594 15.02456497 76979
STARLINK-31160          
1 58749U 24005X   25144.90304828  .00000140  00000+0  25468-4 0  9997
2 58749  43.0046 350.4891 0001088 263.7468  96.3250 15.02533899 76985
STARLINK-31179          
1 58750U 24005Y   25144.83989147  .00001579  00000+0  13196-3 0  9995
2 58750  43.0049 350.9408 0002087 257.2414 102.8196 15.02542883 76972
STARLINK-31127          
1 58765U 24011A   25144.63051194  .00000281  00000+0  38998-4 0  9995
2 58765  53.1602 267.9488 0001252  92.6415 267.4718 15.04923769 76139
STARLINK-31114          
1 58766U 24011B   25144.71290960  .00000468  00000+0  52057-4 0  9990
2 58766  53.1608 267.0487 0001359  96.2139 263.9006 15.04919517 76156
STARLINK-31140          
1 58767U 24011C   25144.62729531 -.00000272  00000+0  33497-6 0  9995
2 58767  53.1608 267.9282 0001294  89.9343 270.1795 15.04920772 76131
STARLINK-31145          
1 58768U 24011D   25144.62407182  .00001002  00000+0  89378-4 0  9999
2 58768  53.1602 267.9077 0001231  91.5698 268.5433 15.04923462 76017
STARLINK-31146          
1 58769U 24011E   25144.61978045  .00002822  00000+0  21642-3 0  9990
2 58769  53.1600 267.8824 0001281  87.1592 272.9545 15.04931211 76131
STARLINK-31143          
1 58770U 24011F   25144.74938506  .00000634  00000+0  63641-4 0  9999
2 58770  53.1603 267.2686 0001227  91.0802 269.0328 15.04926943 76158
STARLINK-31135          
1 58771U 24011G   25144.61334200  .00000913  00000+0  83123-4 0  9994
2 58771  53.1608 267.8428 0001347  89.8747 270.2397 15.04925374 76135
STARLINK-31136          
1 58772U 24011H   25144.61012200  .00001552  00000+0  12778-3 0  9995
2 58772  53.1605 267.8222 0001303  85.6488 274.4651 15.04923504 76135
STARLINK-31073          
1 58773U 24011J   25144.67331674  .00000896  00000+0  81941-4 0  9990
2 58773  53.1605 267.5077 0001387 101.9340 258.1805 15.04928554 76143
STARLINK-31122          
1 58774U 24011K   25144.60368797  .00001839  00000+0  14781-3 0  9995
2 58774  53.1600 267.7806 0001273  91.2873 268.8262 15.04924466 76139
STARLINK-31123          
1 58775U 24011L   25144.73329286  .00001035  00000+0  91643-4 0  9991
2 58775  53.1607 267.1650 0001303  92.3393 267.7746 15.04924520 76159
STARLINK-31117          
1 58776U 24011M   25144.66365695  .00000512  00000+0  55112-4 0  9998
2 58776  53.1594 267.4445 0001174  90.7417 269.3707 15.04929770 76141
STARLINK-31132          
1 58777U 24011N   25144.50540692  .00001619  00000+0  66775-4 0  9990
2 58777  53.1597 186.7674 0001222  86.6087 273.5053 15.30201375 77283
STARLINK-31120          
1 58778U 24011P   25144.71934514  .00000722  00000+0  69789-4 0  9996
2 58778  53.1601 267.0801 0001253  90.3918 269.7215 15.04920670 76153
STARLINK-31142          
1 58779U 24011Q   25144.72363020  .00001882  00000+0  15077-3 0  9994
2 58779  53.1601 267.1063 0000638  76.4261 283.6800 15.04925357 76159
STARLINK-31099          
1 58781U 24011S   25144.64327897  .00000400  00000+0  47306-4 0  9996
2 58781  53.1611 267.3192 0001214  92.4244 267.6885 15.04917425 76149
STARLINK-31060          
1 58782U 24011T   25144.32044110  .00000435  00000+0  20846-4 0  9994
2 58782  53.1592 155.5765 0001022 111.3144 248.7970 15.39618581 77706
STARLINK-31047          
1 58783U 24011U   25144.91668981 -.00008570  00000+0 -27760-3 0  9999
2 58783  53.1580 259.4552 0001126  80.7152 155.9927 15.30193430 76156
STARLINK-31039          
1 58784U 24011V   25144.70646442  .00000708  00000+0  68851-4 0  9995
2 58784  53.1610 267.0009 0001262  92.0384 268.0750 15.04926576 76153
STARLINK-31034          
1 58785U 24011W   25144.36379242  .00000364  00000+0  24428-4 0  9999
2 58785  53.1593 175.2071 0001221  78.2748 281.8390 15.30193674 77437
STARLINK-31024          
1 58786U 24011X   25144.63683353  .00000822  00000+0  76802-4 0  9993
2 58786  53.1607 267.2752 0001307  92.8639 267.2500 15.04926480 76146
STARLINK-31189          
1 58787U 24012A   25144.86639079  .00001887  00000+0  81962-4 0  9991
2 58787  43.0022 355.5614 0001189 277.4251  82.6465 15.25911402 77076
STARLINK-31185          
1 58788U 24012B   25144.92958174 -.00007319  00000+0 -26989-3 0  9994
2 58788  43.0000 355.1815 0001381 270.3530  89.7163 15.25948844 77082
STARLINK-31166          
1 58789U 24012C   25144.87981618 -.00003220  00000+0 -11330-3 0  9999
2 58789  43.0035 354.7817 0001935 274.6253  85.4377 15.25902141 77082
STARLINK-31187          
1 58790U 24012D   25143.61590052  .00000949  00000+0  46124-4 0  9993
2 58790  43.0009   2.5251 0001428 264.1195  95.9494 15.25903604 76890
STARLINK-31162          
1 58791U 24012E   25144.87769688 -.00003335  00000+0 -11765-3 0  9992
2 58791  43.0006 355.6421 0000711 286.1820  73.8953 15.25926642 77075
STARLINK-31184          
1 58793U 24012G   25144.91827635  .00000801  00000+0  40484-4 0  9990
2 58793  43.0018 355.1030 0001648 279.2061  80.8603 15.25908299 77080
STARLINK-31192          
1 58794U 24012H   25144.93848076  .00001099  00000+0  51833-4 0  9995
2 58794  43.0012 354.3659 0001332 267.7792  92.2907 15.25920631 77095
STARLINK-31161          
1 58795U 24012J   25144.84829551  .00001221  00000+0  56548-4 0  9998
2 58795  43.0042 355.4304 0001797 267.0887  92.9759 15.25904488 77084
STARLINK-31195          
1 58796U 24012K   25144.64966016  .00000611  00000+0  33190-4 0  9995
2 58796  43.0030 356.5166 0001328 268.0608  92.0091 15.25902560 77047
STARLINK-31193          
1 58797U 24012L   25144.90923433  .00000211  00000+0  17909-4 0  9997
2 58797  43.0022 355.0225 0001338 259.5267 100.5433 15.25899807 77084
STARLINK-31168          
1 58798U 24012M   25144.77606117  .00000901  00000+0  44288-4 0  9996
2 58798  43.0034 355.7457 0001951 288.0724  71.9914 15.25911356 77065
STARLINK-31191          
1 58800U 24012P   25144.57741235 -.00001857  00000+0 -61153-4 0  9992
2 58800  43.0034 356.8290 0001319 265.0177  95.0523 15.25906953 77038
STARLINK-31170          
1 58801U 24012Q   25144.90244612 -.00000229  00000+0  10608-5 0  9998
2 58801  43.0024 354.9664 0000780 278.9717  81.1045 15.25902338 77089
STARLINK-31141          
1 58803U 24012S   25144.63382010  .00000019  00000+0  10559-4 0  9995
2 58803  42.9961 356.3732 0000479 181.9030 178.1819 15.25902233 77043
STARLINK-31188          
1 58804U 24012T   25144.57062643  .00000284  00000+0  20705-4 0  9994
2 58804  43.0029 356.7699 0001353 275.2303  84.8393 15.25909133 77034
STARLINK-31138          
1 58806U 24012V   25144.93622845  .00001216  00000+0  56318-4 0  9997
2 58806  43.0006 354.3504 0001176 277.5541  82.5176 15.25912089 77096
STARLINK-31163          
1 58807U 24012W   25144.88885810 -.00005419  00000+0 -19730-3 0  9992
2 58807  43.0038 354.8442 0001393 291.4164  68.6538 15.25940081 77095
